OBJECT_NAME,OBJECT_ID,EPOCH,MEAN_MOTION,ECCENTRICITY,INCLINATION,RA_OF_ASC_NODE,ARG_OF_PERICENTER,MEAN_ANOMALY,EPHEMERIS_TYPE,CLASSIFICATION_TYPE,NORAD_CAT_ID,ELEMENT_SET_NO,REV_AT_EPOCH,BSTAR,MEAN_MOTION_DOT,MEAN_MOTION_DDOT
ONEWEB-0642,2023-029L,2026-06-08T10:55:23.863584,13.19723928,.0001204,87.9163,306.7173,119.6756,240.4497,0,U,55806,999,15775,.92093E-4,.5E-6,0
ONEWEB-0643,2023-029M,2026-06-08T18:30:27.429984,13.14502761,.0001582,87.8949,291.4083,120.8563,239.2722,0,U,55807,999,15828,-.51947E-3,-.18E-5,0
ONEWEB-0645,2023-029P,2026-06-08T18:37:06.456288,13.19724485,.0001391,87.9162,306.6517,91.2895,268.8397,0,U,55809,999,15779,.15266E-3,.74E-6,0
ONEWEB-0646,2023-029Q,2026-06-08T19:02:09.080160,13.19724944,.0001604,87.9162,306.6484,104.0810,256.0501,0,U,55810,999,15778,.75861E-4,.43E-6,0
ONEWEB-0648,2023-029R,2026-06-08T19:34:22.060704,13.14504908,.0000921,87.8959,291.3722,101.3304,258.7929,0,U,55811,999,15829,.60484E-3,.237E-5,0
ONEWEB-0649,2023-029S,2026-06-08T10:32:38.792832,13.19724805,.0001562,87.9162,306.7169,95.8120,264.3191,0,U,55812,999,15777,.24355E-3,.11E-5,0
ONEWEB-0650,2023-029T,2026-06-08T19:31:41.259072,13.19724344,.0001359,87.9163,306.6448,108.4010,251.7271,0,U,55813,999,15779,.44592E-4,.31E-6,0
ONEWEB-0652,2023-029U,2026-06-08T19:06:58.451040,13.14504567,.0002018,87.8954,291.3838,99.8909,260.2449,0,U,55814,999,15826,-.13013E-3,-.35E-6,0
ONEWEB-0653,2023-029V,2026-06-08T18:44:08.439936,13.14503152,.0001886,87.8957,291.3848,96.9999,263.1346,0,U,55815,999,15829,-.46607E-3,-.16E-5,0
ONEWEB-0654,2023-029W,2026-06-08T18:37:17.772960,13.14503332,.0002197,87.8957,291.3819,94.4391,265.6990,0,U,55816,999,15831,-.63186E-3,-.221E-5,0
ONEWEB-0656,2023-029X,2026-06-08T19:05:23.544096,13.20772223,.0002355,87.9193,276.1018,96.5001,263.6401,0,U,55817,999,16004,.19375E-3,.92E-6,0
ONEWEB-0657,2023-029Y,2026-06-08T10:19:00.560640,13.19725152,.0002429,87.9159,306.7198,107.7636,252.3762,0,U,55818,999,15775,.37094E-3,.161E-5,0
ONEWEB-0658,2023-029Z,2026-06-08T19:18:03.896928,13.19724095,.0001511,87.9170,306.6200,106.8961,253.2338,0,U,55819,999,15781,-.13363E-3,-.41E-6,0
ONEWEB-0660,2023-029AA,2026-06-08T18:05:19.620384,13.14503860,.0001609,87.8969,291.3785,92.7985,267.3329,0,U,55820,999,15829,.59732E-3,.234E-5,0
ONEWEB-0661,2023-029AB,2026-06-08T18:55:34.317696,13.14502361,.0001719,87.8943,291.4179,91.0731,269.0596,0,U,55821,999,15828,-.30209E-3,-.99E-6,0
ONEWEB-0662,2023-029AC,2026-06-08T17:56:11.865120,13.14502002,.0001592,87.8948,291.4324,93.7312,266.3999,0,U,55822,999,15832,.29332E-3,.122E-5,0
ONEWEB-0663,2023-029AD,2026-06-08T18:05:42.920736,13.20868752,.000146,87.9195,276.1823,100.1063,260.0236,0,U,55823,999,16003,-.68608E-4,-.15E-6,0
ONEWEB-0664,2023-029AE,2026-06-08T18:45:58.667328,13.20770251,.0001935,87.9179,276.1585,85.6270,274.5084,0,U,55824,999,16003,-.14778E-3,-.47E-6,0
ONEWEB-0665,2023-029AF,2026-06-08T18:51:00.370080,13.14502865,.0001558,87.8950,291.3995,96.3561,263.7746,0,U,55825,999,15830,-.38178E-3,-.129E-5,0
ONEWEB-0666,2023-029AG,2026-06-08T18:36:17.263584,13.20771086,.0002551,87.9182,276.1495,110.5717,249.5690,0,U,55826,999,16004,-.11236E-3,-.33E-6,0
ONEWEB-0667,2023-029AH,2026-06-08T18:29:01.588992,13.20771319,.0001805,87.9194,276.1074,96.0328,264.1011,0,U,55827,999,16003,-.12261E-3,-.37E-6,0
ONEWEB-0669,2023-029AJ,2026-06-08T18:21:44.883648,13.20771634,.0002368,87.9188,276.1202,90.5339,269.6066,0,U,55828,999,16003,-.12951E-4,.8E-7,0
ONEWEB-0670,2023-029AK,2026-06-08T18:19:02.094816,13.14502881,.00018,87.8948,291.4209,86.3114,273.8221,0,U,55829,999,15832,.42728E-3,.171E-5,0
ONEWEB-0671,2023-029AL,2026-06-08T19:11:13.363872,13.19724108,.0001685,87.9164,306.6473,93.2712,266.8614,0,U,55830,999,15779,-.44426E-4,-.5E-7,0
ONEWEB-0672,2023-029AM,2026-06-08T18:14:28.121280,13.20771557,.0002201,87.9190,276.1144,101.5837,258.5543,0,U,55831,999,16003,-.4069E-4,-.4E-7,0
ONEWEB-0673,2023-029AN,2026-06-08T18:38:15.654048,13.19726921,.0001748,87.9171,306.6429,93.3271,266.8061,0,U,55832,999,15779,.16452E-3,.79E-6,0
ONEWEB-0674,2023-029AP,2026-06-08T19:22:58.633248,13.14503787,.0001824,87.8947,291.3892,86.3682,273.7656,0,U,55833,999,15831,.38831E-3,.157E-5,0
ONEWEB-0675,2023-029AQ,2026-06-08T18:59:52.035072,13.19723536,.0001968,87.9161,306.6502,104.8819,255.2532,0,U,55834,999,15781,-.11856E-3,-.35E-6,0
ONEWEB-0720,2023-029AR,2026-06-08T15:10:07.925088,13.19724604,.0001541,87.9161,306.6823,98.9742,261.1565,0,U,55835,999,15771,.15283E-3,.74E-6,0
