ONEWEB-0642             
1 55806U 23029L   26159.45513732  .00000050  00000+0  92093-4 0  9994
2 55806  87.9163 306.7173 0001203 119.6756 240.4497 13.19723928157758
ONEWEB-0643             
1 55807U 23029M   26159.77115081 -.00000180  00000+0 -51947-3 0  9993
2 55807  87.8949 291.4083 0001582 120.8563 239.2722 13.14502761158281
ONEWEB-0645             
1 55809U 23029P   26159.77576917  .00000074  00000+0  15266-3 0  9998
2 55809  87.9162 306.6517 0001391  91.2895 268.8397 13.19724485157794
ONEWEB-0646             
1 55810U 23029Q   26159.79316065  .00000043  00000+0  75861-4 0  9992
2 55810  87.9162 306.6484 0001604 104.0810 256.0501 13.19724944157781
ONEWEB-0648             
1 55811U 23029R   26159.81553311  .00000237  00000+0  60484-3 0  9992
2 55811  87.8959 291.3722 0000921 101.3304 258.7929 13.14504908158290
ONEWEB-0649             
1 55812U 23029S   26159.43933789  .00000110  00000+0  24355-3 0  9999
2 55812  87.9162 306.7169 0001562  95.8120 264.3191 13.19724805157770
ONEWEB-0650             
1 55813U 23029T   26159.81367198  .00000031  00000+0  44592-4 0  9995
2 55813  87.9163 306.6448 0001359 108.4010 251.7271 13.19724344157793
ONEWEB-0652             
1 55814U 23029U   26159.79650985 -.00000035  00000+0 -13013-3 0  9991
2 55814  87.8954 291.3838 0002018  99.8909 260.2449 13.14504567158260
ONEWEB-0653             
1 55815U 23029V   26159.78065324 -.00000160  00000+0 -46607-3 0  9992
2 55815  87.8957 291.3848 0001886  96.9999 263.1346 13.14503152158294
ONEWEB-0654             
1 55816U 23029W   26159.77590015 -.00000221  00000+0 -63186-3 0  9991
2 55816  87.8957 291.3819 0002197  94.4391 265.6990 13.14503332158313
ONEWEB-0656             
1 55817U 23029X   26159.79541139  .00000092  00000+0  19375-3 0  9992
2 55817  87.9193 276.1018 0002355  96.5001 263.6401 13.20772223160048
ONEWEB-0657             
1 55818U 23029Y   26159.42986761  .00000161  00000+0  37094-3 0  9992
2 55818  87.9159 306.7198 0002428 107.7636 252.3762 13.19725152157756
ONEWEB-0658             
1 55819U 23029Z   26159.80421177 -.00000041  00000+0 -13363-3 0  9992
2 55819  87.9170 306.6200 0001511 106.8961 253.2338 13.19724095157817
ONEWEB-0660             
1 55820U 23029AA  26159.75369931  .00000234  00000+0  59732-3 0  9999
2 55820  87.8969 291.3785 0001609  92.7985 267.3329 13.14503860158298
ONEWEB-0661             
1 55821U 23029AB  26159.78859164 -.00000099  00000+0 -30209-3 0  9994
2 55821  87.8943 291.4179 0001719  91.0731 269.0596 13.14502361158281
ONEWEB-0662             
1 55822U 23029AC  26159.74735955  .00000122  00000+0  29332-3 0  9992
2 55822  87.8948 291.4324 0001592  93.7312 266.3999 13.14502002158326
ONEWEB-0663             
1 55823U 23029AD  26159.75396899 -.00000015  00000+0 -68608-4 0  9997
2 55823  87.9195 276.1823 0001460 100.1063 260.0236 13.20868752160036
ONEWEB-0664             
1 55824U 23029AE  26159.78192902 -.00000047  00000+0 -14778-3 0  9993
2 55824  87.9179 276.1585 0001935  85.6270 274.5084 13.20770251160035
ONEWEB-0665             
1 55825U 23029AF  26159.78542095 -.00000129  00000+0 -38178-3 0  9997
2 55825  87.8950 291.3995 0001558  96.3561 263.7746 13.14502865158308
ONEWEB-0666             
1 55826U 23029AG  26159.77519981 -.00000033  00000+0 -11236-3 0  9995
2 55826  87.9182 276.1495 0002551 110.5717 249.5690 13.20771086160043
ONEWEB-0667             
1 55827U 23029AH  26159.77015728 -.00000037  00000+0 -12261-3 0  9999
2 55827  87.9194 276.1074 0001805  96.0328 264.1011 13.20771319160035
ONEWEB-0669             
1 55828U 23029AJ  26159.76510282  .00000008  00000+0 -12951-4 0  9998
2 55828  87.9188 276.1202 0002368  90.5339 269.6066 13.20771634160038
ONEWEB-0670             
1 55829U 23029AK  26159.76321869  .00000171  00000+0  42728-3 0  9994
2 55829  87.8948 291.4209 0001800  86.3114 273.8221 13.14502881158321
ONEWEB-0671             
1 55830U 23029AL  26159.79946023 -.00000005  00000+0 -44426-4 0  9990
2 55830  87.9164 306.6473 0001685  93.2712 266.8614 13.19724108157799
ONEWEB-0672             
1 55831U 23029AM  26159.76004770 -.00000004  00000+0 -40690-4 0  9990
2 55831  87.9190 276.1144 0002201 101.5837 258.5543 13.20771557160033
ONEWEB-0673             
1 55832U 23029AN  26159.77657007  .00000079  00000+0  16452-3 0  9997
2 55832  87.9171 306.6429 0001748  93.3271 266.8061 13.19726921157792
ONEWEB-0674             
1 55833U 23029AP  26159.80762307  .00000157  00000+0  38831-3 0  9994
2 55833  87.8947 291.3892 0001824  86.3682 273.7656 13.14503787158314
ONEWEB-0675             
1 55834U 23029AQ  26159.79157448 -.00000035  00000+0 -11856-3 0  9992
2 55834  87.9161 306.6502 0001968 104.8819 255.2532 13.19723536157812
ONEWEB-0720             
1 55835U 23029AR  26159.63203617  .00000074  00000+0  15283-3 0  9995
2 55835  87.9161 306.6823 0001541  98.9742 261.1565 13.19724604157712
